1 27424U 02022A   11255.84619522  .00000470  00000-0  11442-3 0   623
2 27424 098.2008 195.2273 0001282 087.1364 273.0003 14.57105670497831